NORAD_CAT_ID,OBJECT_NAME,OBJECT_TYPE,EPOCH,MEAN_MOTION,ECCENTRICITY,INCLINATION,RA_OF_ASC_NODE,ARG_OF_PERICENTER,MEAN_ANOMALY,BSTAR,MEAN_MOTION_DOT,MEAN_MOTION_DDOT,TLE_LINE0,TLE_LINE1,TLE_LINE2,SEMIMAJOR_AXIS,PERIOD,APOGEE,PERIGEE,DECAYED
55428.0,STARLINK-5064,PAYLOAD,2023-05-29 14:00:01,14.99321647,0.0002955,69.999,124.1498,275.4563,55.1512,-0.0039751,-0.00048426,0.0,0 STARLINK-5064,1 55428U 23014AP  23149.58334491 -.00048426  00000-0 -39751-2 0  9993,2 55428  69.9990 124.1498 0002955 275.4563  55.1512 14.99321647  1309,6947.128,96.043,571.046,566.94,0.0
55428.0,STARLINK-5064,PAYLOAD,2023-05-29 22:08:13,14.99398788,0.0002947,69.9982,123.2945,264.2232,95.8592,-0.0015306,-0.0001882,0.0,0 STARLINK-5064,1 55428U 23014AP  23149.92238373 -.00018820  00000-0 -15306-2 0  9998,2 55428  69.9982 123.2945 0002947 264.2232  95.8592 14.99398788 19552,6946.89,96.038,570.802,566.707,0.0
55428.0,STARLINK-5064,PAYLOAD,2023-05-30 14:00:01,14.99316788,0.0003041,69.9989,121.6243,274.0345,52.5351,-0.0037313,-0.00045475,0.0,0 STARLINK-5064,1 55428U 23014AP  23150.58334491 -.00045475  00000-0 -37313-2 0  9998,2 55428  69.9989 121.6243 0003041 274.0345  52.5351 14.99316788 18712,6947.143,96.044,571.121,566.895,0.0
55428.0,STARLINK-5064,PAYLOAD,2023-05-30 22:00:00,14.99306527,0.0003057,69.9993,120.7825,268.375,56.8429,0.0015999,0.0001954,0.0,0 STARLINK-5064,1 55428U 23014AP  23150.91667824  .00019540  00000-0  15999-2 0  9992,2 55428  69.9993 120.7825 0003057 268.3750  56.8429 14.99306527 18764,6947.175,96.044,571.163,566.916,0.0
55428.0,STARLINK-5064,PAYLOAD,2023-05-31 00:00:02,14.99331138,0.0003086,69.9994,120.572,269.4015,145.537,-0.0024469,-0.00029931,0.0,0 STARLINK-5064,1 55428U 23014AP  23151.00002315 -.00029931  00000-0 -24469-2 0  9990,2 55428  69.9994 120.5720 0003086 269.4015 145.5370 14.99331138  1304,6947.099,96.043,571.108,566.82,0.0
55428.0,STARLINK-5064,PAYLOAD,2023-05-31 07:45:44,14.99302933,0.0002927,69.9982,119.7558,273.1208,86.9616,6.041e-05,6.45e-06,0.0,0 STARLINK-5064,1 55428U 23014AP  23151.32343621  .00000645  00000-0  60410-4 0  9990,2 55428  69.9982 119.7558 0002927 273.1208  86.9616 14.99302933 18826,6947.186,96.045,571.084,567.017,0.0
55428.0,STARLINK-5064,PAYLOAD,2023-05-31 22:10:24,14.99302498,0.0002862,69.9984,118.2392,273.5069,86.5763,-2.9872e-05,-4.59e-06,0.0,0 STARLINK-5064,1 55428U 23014AP  23151.92388940 -.00000459  00000-0 -29872-4 0  9991,2 55428  69.9984 118.2392 0002862 273.5069  86.5763 14.99302498 19854,6947.187,96.045,571.04,567.064,0.0
55428.0,STARLINK-5064,PAYLOAD,2023-06-01 07:46:49,14.99304741,0.0002828,69.9986,117.2286,272.7655,87.3181,-3.8899e-06,-1.41e-06,0.0,0 STARLINK-5064,1 55428U 23014AP  23152.32418708 -.00000141  00000-0 -38899-5 0  9990,2 55428  69.9986 117.2286 0002828 272.7655  87.3181 14.99304741 19914,6947.18,96.045,571.01,567.081,0.0
55428.0,STARLINK-5064,PAYLOAD,2023-06-02 07:47:54,14.99302788,0.0002814,69.9988,114.7017,272.6907,87.393,-8.4507e-06,-1.97e-06,0.0,0 STARLINK-5064,1 55428U 23014AP  23153.32493878 -.00000197  00000-0 -84507-5 0  9990,2 55428  69.9988 114.7017 0002814 272.6907  87.3930 14.99302788 19128,6947.186,96.045,571.006,567.096,0.0
55428.0,STARLINK-5064,PAYLOAD,2023-06-02 22:12:34,14.9929727,0.0002683,69.9992,113.1865,267.7609,92.3243,-5.018e-05,-7.08e-06,0.0,0 STARLINK-5064,1 55428U 23014AP  23153.92539468 -.00000708  00000-0 -50180-4 0  9999,2 55428  69.9992 113.1865 0002683 267.7609  92.3243 14.99297270 20152,6947.203,96.045,570.932,567.204,0.0
55428.0,STARLINK-5064,PAYLOAD,2023-06-03 03:00:47,14.99296371,0.0002712,69.9991,112.681,267.883,92.2019,-5.8093e-05,-8.04e-06,0.0,0 STARLINK-5064,1 55428U 23014AP  23154.12554619 -.00000804  00000-0 -58093-4 0  9995,2 55428  69.9991 112.6810 0002712 267.8830  92.2019 14.99296371 19244,6947.206,96.045,570.955,567.187,0.0
55428.0,STARLINK-5064,PAYLOAD,2023-06-03 06:12:55,14.99297182,0.0002701,69.9992,112.344,267.932,92.153,-4.7042e-05,-6.69e-06,0.0,0 STARLINK-5064,1 55428U 23014AP  23154.25897921 -.00000669  00000-0 -47042-4 0  9996,2 55428  69.9992 112.3440 0002701 267.9320  92.1530 14.99297182 20200,6947.204,96.045,570.945,567.192,0.0
55428.0,STARLINK-5064,PAYLOAD,2023-06-03 20:37:34,14.99299762,0.000274,69.9991,110.8277,264.6558,95.4289,-5.05e-06,-1.56e-06,0.0,0 STARLINK-5064,1 55428U 23014AP  23154.85942796 -.00000156  00000-0 -50500-5 0  9998,2 55428  69.9991 110.8277 0002740 264.6558  95.4289 14.99299762 20292,6947.196,96.045,570.964,567.157,0.0
55428.0,STARLINK-5064,PAYLOAD,2023-06-04 03:01:51,14.99300121,0.0002774,69.9991,110.1534,267.0971,92.9872,-1.4336e-06,-1.11e-06,0.0,0 STARLINK-5064,1 55428U 23014AP  23155.12629507 -.00000111  00000-0 -14336-5 0  9999,2 55428  69.9991 110.1534 0002774 267.0971  92.9872 14.99300121 19395,6947.194,96.045,570.987,567.132,0.0
55428.0,STARLINK-5064,PAYLOAD,2023-06-04 14:14:22,14.99300594,0.0002814,69.9992,108.974,269.7438,90.3399,1.6485e-05,1.08e-06,0.0,0 STARLINK-5064,1 55428U 23014AP  23155.59331178  .00000108  00000-0  16485-4 0  9994,2 55428  69.9992 108.9740 0002814 269.7438  90.3399 14.99300594 20406,6947.193,96.045,571.013,567.103,0.0
55428.0,STARLINK-5064,PAYLOAD,2023-06-04 22:14:43,14.99298464,0.0002878,69.999,108.1318,270.4189,89.664,3.2745e-05,3.07e-06,0.0,0 STARLINK-5064,1 55428U 23014AP  23155.92689685  .00000307  00000-0  32745-4 0  9998,2 55428  69.9990 108.1318 0002878 270.4189  89.6640 14.99298464 20456,6947.2,96.045,571.064,567.065,0.0
55428.0,STARLINK-5064,PAYLOAD,2023-06-05 04:39:00,14.99302273,0.0002854,69.9991,107.458,270.3117,89.7715,7.1343e-05,7.79e-06,0.0,0 STARLINK-5064,1 55428U 23014AP  23156.19376055  .00000779  00000-0  71343-4 0  9992,2 55428  69.9991 107.4580 0002854 270.3117  89.7715 14.99302273 19551,6947.188,96.045,571.036,567.07,0.0
55428.0,STARLINK-5064,PAYLOAD,2023-06-05 06:15:05,14.99302968,0.0002864,69.9991,107.2894,270.4735,89.6097,7.6387e-05,8.41e-06,0.0,0 STARLINK-5064,1 55428U 23014AP  23156.26047665  .00000841  00000-0  76387-4 0  9995,2 55428  69.9991 107.2894 0002864 270.4735  89.6097 14.99302968 20505,6947.186,96.045,571.04,567.061,0.0
55428.0,STARLINK-5064,PAYLOAD,2023-06-05 14:15:27,14.99299617,0.0002856,69.9991,106.4471,271.0437,89.0395,1.1108e-05,4.2e-07,0.0,0 STARLINK-5064,1 55428U 23014AP  23156.59406420  .00000042  00000-0  11108-4 0  9992,2 55428  69.9991 106.4471 0002856 271.0437  89.0395 14.99299617 20550,6947.196,96.045,571.045,567.077,0.0
55428.0,STARLINK-5064,PAYLOAD,2023-06-06 06:16:10,14.9930287,0.000286,69.9993,104.7624,270.98,89.1031,6.1433e-06,-1.9e-07,0.0,0 STARLINK-5064,1 55428U 23014AP  23157.26122977 -.00000019  00000-0  61433-5 0  9991,2 55428  69.9993 104.7624 0002860 270.9800  89.1031 14.99302870 19710,6947.186,96.045,571.038,567.064,0.0
55428.0,STARLINK-5064,PAYLOAD,2023-06-06 20:40:49,14.99299498,0.0002838,69.9995,103.246,270.9807,89.1028,-1.8482e-05,-3.2e-06,0.0,0 STARLINK-5064,1 55428U 23014AP  23157.86168322 -.00000320  00000-0 -18482-4 0  9992,2 55428  69.9995 103.2460 0002838 270.9807  89.1028 14.99299498 20748,6947.196,96.045,571.033,567.09,0.0
55428.0,STARLINK-5064,PAYLOAD,2023-06-07 06:17:15,14.99301165,0.0002841,69.9994,102.2347,270.3703,89.7131,-3.1769e-05,-4.83e-06,0.0,0 STARLINK-5064,1 55428U 23014AP  23158.26198321 -.00000483  00000-0 -31769-4 0  9992,2 55428  69.9994 102.2347 0002841 270.3703  89.7131 14.99301165 19860,6947.191,96.045,571.03,567.083,0.0
55428.0,STARLINK-5064,PAYLOAD,2023-06-07 20:41:54,14.99300188,0.0002831,69.9995,100.7184,270.2705,89.813,-1.0703e-05,-2.25e-06,0.0,0 STARLINK-5064,1 55428U 23014AP  23158.86243429 -.00000225  00000-0 -10703-4 0  9997,2 55428  69.9995 100.7184 0002831 270.2705  89.8130 14.99300188 20892,6947.194,96.045,571.026,567.093,0.0
55428.0,STARLINK-5064,PAYLOAD,2023-06-08 06:18:20,14.99303589,0.0002841,69.9995,99.7077,270.716,89.3674,2.184e-05,1.73e-06,0.0,0 STARLINK-5064,1 55428U 23014AP  23159.26273177  .00000173  00000-0  21840-4 0  9999,2 55428  69.9995  99.7077 0002841 270.7160  89.3674 14.99303589 20011,6947.184,96.045,571.022,567.075,0.0
55428.0,STARLINK-5064,PAYLOAD,2023-06-08 23:55:08,14.99298176,0.0002807,69.9996,97.8546,270.906,89.1778,-3.2038e-06,-1.33e-06,0.0,0 STARLINK-5064,1 55428U 23014AP  23159.99662081 -.00000133  00000-0 -32038-5 0  9995,2 55428  69.9996  97.8546 0002807 270.9060  89.1778 14.99298176 20125,6947.2,96.045,571.016,567.115,0.0
55428.0,STARLINK-5064,PAYLOAD,2023-06-09 12:43:42,14.99297529,0.0002669,70.0001,96.5076,269.2756,90.8098,-1.4476e-05,-2.71e-06,0.0,0 STARLINK-5064,1 55428U 23014AP  23160.53035618 -.00000271  00000-0 -14476-4 0  9995,2 55428  70.0001  96.5076 0002669 269.2756  90.8098 14.99297529 21146,6947.202,96.045,570.922,567.213,0.0
55428.0,STARLINK-5064,PAYLOAD,2023-06-10 01:32:17,14.99300412,0.0002716,70.0001,95.1596,270.0899,89.9949,-1.8086e-05,-3.15e-06,0.0,0 STARLINK-5064,1 55428U 23014AP  23161.06408911 -.00000315  00000-0 -18086-4 0  9994,2 55428  70.0001  95.1596 0002716 270.0899  89.9949 14.99300412 20283,6947.194,96.045,570.945,567.172,0.0
55428.0,STARLINK-5064,PAYLOAD,2023-06-10 12:44:47,14.99300915,0.0002768,70.0,93.9802,269.9306,90.1536,-5.3727e-06,-1.6e-06,0.0,0 STARLINK-5064,1 55428U 23014AP  23161.53110576 -.00000160  00000-0 -53727-5 0  9993,2 55428  70.0000  93.9802 0002768 269.9306  90.1536 14.99300915 21291,6947.192,96.045,570.98,567.134,0.0
55428.0,STARLINK-5064,PAYLOAD,2023-06-11 01:33:21,14.9930226,0.0002761,70.0001,92.6326,267.6215,92.4629,4.5232e-05,4.6e-06,0.0,0 STARLINK-5064,1 55428U 23014AP  23162.06483726  .00000460  00000-0  45232-4 0  9994,2 55428  70.0001  92.6326 0002761 267.6215  92.4629 14.99302260 20434,6947.188,96.045,570.971,567.135,0.0
55428.0,STARLINK-5064,PAYLOAD,2023-06-11 12:45:52,14.99298787,0.0002906,69.9997,91.4539,270.8667,89.2159,-4.4785e-05,-6.42e-06,0.0,0 STARLINK-5064,1 55428U 23014AP  23162.53185909 -.00000642  00000-0 -44785-4 0  9994,2 55428  69.9997  91.4539 0002906 270.8667  89.2159 14.99298787 21448,6947.199,96.045,571.082,567.045,0.0
